EARTHCARE               
1 59908U 24101A   24185.89717576  .00015799  00000+0  24057-3 0  9990
2 59908  96.9813 313.2587 0004695  60.9991 299.1734 15.54570352  5586
